[Satellite]
VERSION=1.1
NAME=ORBCOMM FM119 [+]
NICKNAME=ORBCOMM FM119 [+]
TLE1=1 41180U 15081B   17186.23161035 -.00000086  00000-0  18446-4 0  9995
TLE2=2 41180  47.0004 170.0040 0000849 150.6638 209.4294 14.54586263 82726
